STARLINK-2169           
1 47752U 21017AG  26068.63500182  .00004883  00000+0  18146-3 0  9998
2 47752  53.1582 204.0919 0001467  45.6401 314.4719 15.29354188277881
STARLINK-31630          
1 59271U 24050T   26068.56880718 -.00002063  00000+0 -57526-4 0  9991
2 59271  53.1600 168.5079 0001409  92.3163 267.7999 15.30200807110710
