[{"OBJECT_NAME":"STARLINK-2169","OBJECT_ID":"2021-017AG","EPOCH":"2026-03-09T15:14:24.157248","MEAN_MOTION":15.29354188,"ECCENTRICITY":0.0001467,"INCLINATION":53.1582,"RA_OF_ASC_NODE":204.0919,"ARG_OF_PERICENTER":45.6401,"MEAN_ANOMALY":314.4719,"EPHEMERIS_TYPE":0,"CLASSIFICATION_TYPE":"U","NORAD_CAT_ID":47752,"ELEMENT_SET_NO":999,"REV_AT_EPOCH":27788,"BSTAR":0.00018146,"MEAN_MOTION_DOT":4.883e-5,"MEAN_MOTION_DDOT":0},{"OBJECT_NAME":"STARLINK-31630","OBJECT_ID":"2024-050T","EPOCH":"2026-03-09T13:39:04.940352","MEAN_MOTION":15.30200807,"ECCENTRICITY":0.0001409,"INCLINATION":53.16,"RA_OF_ASC_NODE":168.5079,"ARG_OF_PERICENTER":92.3163,"MEAN_ANOMALY":267.7999,"EPHEMERIS_TYPE":0,"CLASSIFICATION_TYPE":"U","NORAD_CAT_ID":59271,"ELEMENT_SET_NO":999,"REV_AT_EPOCH":11071,"BSTAR":-5.7526e-5,"MEAN_MOTION_DOT":-2.063e-5,"MEAN_MOTION_DDOT":0}]
